IRIDIUM 57              
1 25273U 98019B   24366.35379056  .00001047  00000+0  35638-3 0  9994
2 25273  86.3967 215.5117 0001923  86.6740 273.4676 14.35662574400707
IRIDIUM 63              
1 25286U 98021B   24366.43633272  .00001579  00000+0  53407-3 0  9997
2 25286  86.4010 152.4692 0002157  91.6327 268.5117 14.36285532399769
IRIDIUM 69              
1 25319U 98026A   24366.33510866  .00001760  00000+0  54609-3 0  9998
2 25319  86.4004 166.2898 0001912 163.7139 196.4122 14.40627383398897
IRIDIUM 71              
1 25320U 98026B   24366.50496881  .00001781  00000+0  54987-3 0  9991
2 25320  86.4003 160.9456 0000404 345.4251  14.6937 14.40868600399444
IRIDIUM 73              
1 25344U 98032C   24366.26959421  .00002438  00000+0  60789-3 0  9998
2 25344  86.4431 118.1378 0001969 112.5400 247.6014 14.51297191406209
IRIDIUM 82              
1 25467U 98051A   24366.46805986  .00037448  00000+0  14413-2 0  9994
2 25467  86.3718 191.4450 0103507 208.6227 150.9313 15.21271334398366
